{
  "type": "FeatureCollection",
  "features": [
    {
      "type": "Feature",
      "properties": {
        "norad_id": 41581,
        "name": "INTELSAT 31 (IS-31)",
        "group": "intelsat",
        "lat": -0.015324523232387784,
        "lon": -81.73519779541303,
        "alt_km": 35784.078651729855,
        "timestamp": "2025-12-19T18:58:41.259987+00:00",
        "meta_object_name": "INTELSAT 31 (IS-31)",
        "meta_object_id": "2016-035A",
        "meta_epoch": "2025-12-18T19:41:32.858016",
        "meta_mean_motion": 1.00271066,
        "meta_eccentricity": 0.00019884,
        "meta_inclination": 0.0228,
        "meta_ra_of_asc_node": 273.6203,
        "meta_arg_of_pericenter": 289.9223,
        "meta_mean_anomaly": 84.472,
        "meta_ephemeris_type": 0,
        "meta_classification_type": "U",
        "meta_norad_cat_id": 41581,
        "meta_element_set_no": 999,
        "meta_rev_at_epoch": 3487,
        "meta_bstar": 0,
        "meta_mean_motion_dot": -1.26e-06,
        "meta_mean_motion_ddot": 0,
        "tle_line1": "1 41581U 16035A   25352.82051919 -.00000126  00000+0  00000+0 0  9994",
        "tle_line2": "2 41581   0.0228 273.6203 0001988 289.9223  84.4720  1.00271066 34877"
      },
      "geometry": {
        "type": "Point",
        "coordinates": [
          -81.73519779541303,
          -0.015324523232387784
        ]
      }
    },
    {
      "type": "Feature",
      "properties": {
        "norad_id": 41747,
        "name": "INTELSAT 36 (IS-36)",
        "group": "intelsat",
        "lat": 0.038820942098114194,
        "lon": 81.79438615480599,
        "alt_km": 35787.77432413829,
        "timestamp": "2025-12-19T18:58:41.259998+00:00",
        "meta_object_name": "INTELSAT 36 (IS-36)",
        "meta_object_id": "2016-053A",
        "meta_epoch": "2025-12-18T20:14:05.489376",
        "meta_mean_motion": 1.00271742,
        "meta_eccentricity": 0.00014506,
        "meta_inclination": 0.0127,
        "meta_ra_of_asc_node": 10.7493,
        "meta_arg_of_pericenter": 324.8312,
        "meta_mean_anomaly": 124.1251,
        "meta_ephemeris_type": 0,
        "meta_classification_type": "U",
        "meta_norad_cat_id": 41747,
        "meta_element_set_no": 999,
        "meta_rev_at_epoch": 3414,
        "meta_bstar": 0,
        "meta_mean_motion_dot": 1e-08,
        "meta_mean_motion_ddot": 0,
        "tle_line1": "1 41747U 16053A   25352.84311909  .00000001  00000+0  00000+0 0  9999",
        "tle_line2": "2 41747   0.0127  10.7493 0001450 324.8312 124.1251  1.00271742 34144"
      },
      "geometry": {
        "type": "Point",
        "coordinates": [
          81.79438615480599,
          0.038820942098114194
        ]
      }
    },
    {
      "type": "Feature",
      "properties": {
        "norad_id": 41945,
        "name": "INTELSAT 32E (IS-32E)",
        "group": "intelsat",
        "lat": -0.03578360756396797,
        "lon": -29.896935839728904,
        "alt_km": 35785.19410115033,
        "timestamp": "2025-12-19T18:58:41.260009+00:00",
        "meta_object_name": "INTELSAT 32E (IS-32E)",
        "meta_object_id": "2017-007B",
        "meta_epoch": "2025-12-19T06:12:37.307232",
        "meta_mean_motion": 1.00269829,
        "meta_eccentricity": 7.095e-05,
        "meta_inclination": 0.0325,
        "meta_ra_of_asc_node": 74.0804,
        "meta_arg_of_pericenter": 315.5885,
        "meta_mean_anomaly": 108.4146,
        "meta_ephemeris_type": 0,
        "meta_classification_type": "U",
        "meta_norad_cat_id": 41945,
        "meta_element_set_no": 999,
        "meta_rev_at_epoch": 3242,
        "meta_bstar": 0,
        "meta_mean_motion_dot": -2.44e-06,
        "meta_mean_motion_ddot": 0,
        "tle_line1": "1 41945U 17007B   25353.25876513 -.00000244  00000+0  00000+0 0  9992",
        "tle_line2": "2 41945   0.0325  74.0804 0000709 315.5885 108.4146  1.00269829 32421"
      },
      "geometry": {
        "type": "Point",
        "coordinates": [
          -29.896935839728904,
          -0.03578360756396797
        ]
      }
    },
    {
      "type": "Feature",
      "properties": {
        "norad_id": 42818,
        "name": "INTELSAT 35E (IS-35E)",
        "group": "intelsat",
        "lat": -0.024636403290330514,
        "lon": -21.170675834210687,
        "alt_km": 35783.12427432533,
        "timestamp": "2025-12-19T18:58:41.260021+00:00",
        "meta_object_name": "INTELSAT 35E (IS-35E)",
        "meta_object_id": "2017-041A",
        "meta_epoch": "2025-12-19T06:15:07.067808",
        "meta_mean_motion": 1.00271425,
        "meta_eccentricity": 0.00018388,
        "meta_inclination": 0.0196,
        "meta_ra_of_asc_node": 27.2042,
        "meta_arg_of_pericenter": 245.1934,
        "meta_mean_anomaly": 235.0084,
        "meta_ephemeris_type": 0,
        "meta_classification_type": "U",
        "meta_norad_cat_id": 42818,
        "meta_element_set_no": 999,
        "meta_rev_at_epoch": 3101,
        "meta_bstar": 0,
        "meta_mean_motion_dot": -2.13e-06,
        "meta_mean_motion_ddot": 0,
        "tle_line1": "1 42818U 17041A   25353.26049847 -.00000213  00000+0  00000+0 0  9999",
        "tle_line2": "2 42818   0.0196  27.2042 0001838 245.1934 235.0084  1.00271425 31015"
      },
      "geometry": {
        "type": "Point",
        "coordinates": [
          -21.170675834210687,
          -0.024636403290330514
        ]
      }
    },
    {
      "type": "Feature",
      "properties": {
        "norad_id": 42950,
        "name": "INTELSAT 37E (IS-37E)",
        "group": "intelsat",
        "lat": -0.010438268624920134,
        "lon": -4.687859013321617,
        "alt_km": 35788.22458539684,
        "timestamp": "2025-12-19T18:58:41.260032+00:00",
        "meta_object_name": "INTELSAT 37E (IS-37E)",
        "meta_object_id": "2017-059A",
        "meta_epoch": "2025-12-19T06:19:51.614112",
        "meta_mean_motion": 1.00269461,
        "meta_eccentricity": 0.00029657,
        "meta_inclination": 0.027,
        "meta_ra_of_asc_node": 13.9595,
        "meta_arg_of_pericenter": 244.5194,
        "meta_mean_anomaly": 266.5879,
        "meta_ephemeris_type": 0,
        "meta_classification_type": "U",
        "meta_norad_cat_id": 42950,
        "meta_element_set_no": 999,
        "meta_rev_at_epoch": 3026,
        "meta_bstar": 0,
        "meta_mean_motion_dot": 0,
        "meta_mean_motion_ddot": 0,
        "tle_line1": "1 42950U 17059A   25353.26379183  .00000000  00000+0  00000+0 0  9997",
        "tle_line2": "2 42950   0.0270  13.9595 0002965 244.5194 266.5879  1.00269461 30267"
      },
      "geometry": {
        "type": "Point",
        "coordinates": [
          -4.687859013321617,
          -0.010438268624920134
        ]
      }
    },
    {
      "type": "Feature",
      "properties": {
        "norad_id": 43632,
        "name": "AZERSPACE 2 (IS-38)",
        "group": "intelsat",
        "lat": 0.044597173477041716,
        "lon": 58.413941288903295,
        "alt_km": 35789.21927721756,
        "timestamp": "2025-12-19T18:58:41.260044+00:00",
        "meta_object_name": "AZERSPACE 2 (IS-38)",
        "meta_object_id": "2018-074A",
        "meta_epoch": "2025-12-18T20:21:29.033280",
        "meta_mean_motion": 1.00272443,
        "meta_eccentricity": 0.00012971,
        "meta_inclination": 0.0272,
        "meta_ra_of_asc_node": 8.6772,
        "meta_arg_of_pericenter": 281.0733,
        "meta_mean_anomaly": 148.4292,
        "meta_ephemeris_type": 0,
        "meta_classification_type": "U",
        "meta_norad_cat_id": 43632,
        "meta_element_set_no": 999,
        "meta_rev_at_epoch": 2663,
        "meta_bstar": 0,
        "meta_mean_motion_dot": 0,
        "meta_mean_motion_ddot": 0,
        "tle_line1": "1 43632U 18074A   25352.84825270  .00000000  00000+0  00000+0 0  9999",
        "tle_line2": "2 43632   0.0272   8.6772 0001297 281.0733 148.4292  1.00272443 26634"
      },
      "geometry": {
        "type": "Point",
        "coordinates": [
          58.413941288903295,
          0.044597173477041716
        ]
      }
    },
    {
      "type": "Feature",
      "properties": {
        "norad_id": 43633,
        "name": "HORIZONS-3E",
        "group": "intelsat",
        "lat": -0.019361963110654343,
        "lon": -177.7295191304682,
        "alt_km": 35787.278857934514,
        "timestamp": "2025-12-19T18:58:41.260055+00:00",
        "meta_object_name": "HORIZONS-3E",
        "meta_object_id": "2018-074B",
        "meta_epoch": "2025-12-19T05:30:26.347968",
        "meta_mean_motion": 1.00271217,
        "meta_eccentricity": 6.326e-05,
        "meta_inclination": 0.0513,
        "meta_ra_of_asc_node": 183.0597,
        "meta_arg_of_pericenter": 112.6135,
        "meta_mean_anomaly": 44,
        "meta_ephemeris_type": 0,
        "meta_classification_type": "U",
        "meta_norad_cat_id": 43633,
        "meta_element_set_no": 999,
        "meta_rev_at_epoch": 2653,
        "meta_bstar": 0,
        "meta_mean_motion_dot": -6e-08,
        "meta_mean_motion_ddot": 0,
        "tle_line1": "1 43633U 18074B   25353.22947162 -.00000006  00000+0  00000+0 0  9995",
        "tle_line2": "2 43633   0.0513 183.0597 0000632 112.6135  44.0000  1.00271217 26538"
      },
      "geometry": {
        "type": "Point",
        "coordinates": [
          -177.7295191304682,
          -0.019361963110654343
        ]
      }
    }
  ]
}